FLOCK 4G-15             
1 62678U 25009BX  26068.71779869  .00012647  00000+0  47575-3 0  9991
2 62678  97.4054 151.1927 0003699 316.8208  43.2740 15.27266411121358
STARLINK-34009          
1 63849U 25093P   26068.19395938  .00039188  00000+0  14257-2 0  9997
2 63849  43.0018  77.4691 0001373 265.9640  94.1055 15.27586801 47938
